[{"OBJECT_NAME":"KUIPER-00213","OBJECT_ID":"2026-030P","EPOCH":"2026-03-02T18:14:22.557120","MEAN_MOTION":15.32454154,"ECCENTRICITY":0.0014836,"INCLINATION":51.8797,"RA_OF_ASC_NODE":252.864,"ARG_OF_PERICENTER":44.0234,"MEAN_ANOMALY":316.193,"EPHEMERIS_TYPE":0,"CLASSIFICATION_TYPE":"U","NORAD_CAT_ID":67777,"ELEMENT_SET_NO":999,"REV_AT_EPOCH":402,"BSTAR":0.00052735,"MEAN_MOTION_DOT":0.00016486,"MEAN_MOTION_DDOT":0},{"OBJECT_NAME":"KUIPER-00214","OBJECT_ID":"2026-030Q","EPOCH":"2026-03-02T18:52:01.174080","MEAN_MOTION":15.36455754,"ECCENTRICITY":0.0001192,"INCLINATION":51.8838,"RA_OF_ASC_NODE":252.3062,"ARG_OF_PERICENTER":191.3108,"MEAN_ANOMALY":168.7852,"EPHEMERIS_TYPE":0,"CLASSIFICATION_TYPE":"U","NORAD_CAT_ID":67778,"ELEMENT_SET_NO":999,"REV_AT_EPOCH":403,"BSTAR":0.00072278,"MEAN_MOTION_DOT":0.00025808,"MEAN_MOTION_DDOT":0},{"OBJECT_NAME":"KUIPER-00215","OBJECT_ID":"2026-030R","EPOCH":"2026-03-02T17:56:42.245088","MEAN_MOTION":15.34123658,"ECCENTRICITY":0.0009919,"INCLINATION":51.8826,"RA_OF_ASC_NODE":252.794,"ARG_OF_PERICENTER":40.4095,"MEAN_ANOMALY":319.7626,"EPHEMERIS_TYPE":0,"CLASSIFICATION_TYPE":"U","NORAD_CAT_ID":67779,"ELEMENT_SET_NO":999,"REV_AT_EPOCH":402,"BSTAR":0.00092529,"MEAN_MOTION_DOT":0.00030811,"MEAN_MOTION_DDOT":0},{"OBJECT_NAME":"KUIPER-00218","OBJECT_ID":"2026-030S","EPOCH":"2026-03-02T19:18:28.842336","MEAN_MOTION":15.34844934,"ECCENTRICITY":0.0006187,"INCLINATION":51.8825,"RA_OF_ASC_NODE":252.4241,"ARG_OF_PERICENTER":33.3408,"MEAN_ANOMALY":326.7967,"EPHEMERIS_TYPE":0,"CLASSIFICATION_TYPE":"U","NORAD_CAT_ID":67780,"ELEMENT_SET_NO":999,"REV_AT_EPOCH":403,"BSTAR":0.0010081,"MEAN_MOTION_DOT":0.00034372,"MEAN_MOTION_DDOT":0},{"OBJECT_NAME":"KUIPER-00220","OBJECT_ID":"2026-030T","EPOCH":"2026-03-02T17:52:27.384096","MEAN_MOTION":15.34413799,"ECCENTRICITY":0.0008062,"INCLINATION":51.8796,"RA_OF_ASC_NODE":252.767,"ARG_OF_PERICENTER":37.3899,"MEAN_ANOMALY":322.7646,"EPHEMERIS_TYPE":0,"CLASSIFICATION_TYPE":"U","NORAD_CAT_ID":67781,"ELEMENT_SET_NO":999,"REV_AT_EPOCH":402,"BSTAR":0.0007062,"MEAN_MOTION_DOT":0.0002361,"MEAN_MOTION_DDOT":0},{"OBJECT_NAME":"KUIPER-00222","OBJECT_ID":"2026-030U","EPOCH":"2026-03-02T18:19:10.008192","MEAN_MOTION":15.3235555,"ECCENTRICITY":0.0017798,"INCLINATION":51.8799,"RA_OF_ASC_NODE":252.8852,"ARG_OF_PERICENTER":41.2483,"MEAN_ANOMALY":318.9843,"EPHEMERIS_TYPE":0,"CLASSIFICATION_TYPE":"U","NORAD_CAT_ID":67782,"ELEMENT_SET_NO":999,"REV_AT_EPOCH":402,"BSTAR":0.00035887,"MEAN_MOTION_DOT":0.0001107,"MEAN_MOTION_DDOT":0},{"OBJECT_NAME":"KUIPER-00223","OBJECT_ID":"2026-030V","EPOCH":"2026-03-02T18:00:56.799360","MEAN_MOTION":15.33912683,"ECCENTRICITY":0.001216,"INCLINATION":51.8811,"RA_OF_ASC_NODE":252.809,"ARG_OF_PERICENTER":40.7641,"MEAN_ANOMALY":319.4252,"EPHEMERIS_TYPE":0,"CLASSIFICATION_TYPE":"U","NORAD_CAT_ID":67783,"ELEMENT_SET_NO":999,"REV_AT_EPOCH":402,"BSTAR":0.0006928,"MEAN_MOTION_DOT":0.00022811,"MEAN_MOTION_DDOT":0},{"OBJECT_NAME":"KUIPER-00225","OBJECT_ID":"2026-030W","EPOCH":"2026-03-02T19:07:21.385920","MEAN_MOTION":15.35564116,"ECCENTRICITY":0.0003905,"INCLINATION":51.8805,"RA_OF_ASC_NODE":252.3697,"ARG_OF_PERICENTER":20.9138,"MEAN_ANOMALY":339.2007,"EPHEMERIS_TYPE":0,"CLASSIFICATION_TYPE":"U","NORAD_CAT_ID":67784,"ELEMENT_SET_NO":999,"REV_AT_EPOCH":403,"BSTAR":0.0010344,"MEAN_MOTION_DOT":0.00036103,"MEAN_MOTION_DDOT":0},{"OBJECT_NAME":"KUIPER-00226","OBJECT_ID":"2026-030X","EPOCH":"2026-03-02T18:32:49.064640","MEAN_MOTION":15.31372531,"ECCENTRICITY":0.0019528,"INCLINATION":51.8811,"RA_OF_ASC_NODE":252.945,"ARG_OF_PERICENTER":53.0866,"MEAN_ANOMALY":307.1903,"EPHEMERIS_TYPE":0,"CLASSIFICATION_TYPE":"U","NORAD_CAT_ID":67785,"ELEMENT_SET_NO":999,"REV_AT_EPOCH":402,"BSTAR":-0.00046768,"MEAN_MOTION_DOT":-0.00014816,"MEAN_MOTION_DDOT":0},{"OBJECT_NAME":"KUIPER-00259","OBJECT_ID":"2026-030Y","EPOCH":"2026-03-02T17:47:23.844480","MEAN_MOTION":15.34734735,"ECCENTRICITY":0.0007983,"INCLINATION":51.8796,"RA_OF_ASC_NODE":252.7442,"ARG_OF_PERICENTER":30.5588,"MEAN_ANOMALY":329.5861,"EPHEMERIS_TYPE":0,"CLASSIFICATION_TYPE":"U","NORAD_CAT_ID":67786,"ELEMENT_SET_NO":999,"REV_AT_EPOCH":402,"BSTAR":0.00071006,"MEAN_MOTION_DOT":0.00023988,"MEAN_MOTION_DDOT":0},{"OBJECT_NAME":"KUIPER-00260","OBJECT_ID":"2026-030Z","EPOCH":"2026-03-02T18:57:41.470848","MEAN_MOTION":15.3611519,"ECCENTRICITY":8.16e-5,"INCLINATION":51.8792,"RA_OF_ASC_NODE":252.3247,"ARG_OF_PERICENTER":78.5553,"MEAN_ANOMALY":281.5524,"EPHEMERIS_TYPE":0,"CLASSIFICATION_TYPE":"U","NORAD_CAT_ID":67787,"ELEMENT_SET_NO":999,"REV_AT_EPOCH":394,"BSTAR":0.00075901,"MEAN_MOTION_DOT":0.00026827,"MEAN_MOTION_DDOT":0},{"OBJECT_NAME":"KUIPER-00262","OBJECT_ID":"2026-030AA","EPOCH":"2026-03-02T18:53:23.547840","MEAN_MOTION":15.36427077,"ECCENTRICITY":8.2e-5,"INCLINATION":51.8806,"RA_OF_ASC_NODE":252.3079,"ARG_OF_PERICENTER":151.651,"MEAN_ANOMALY":208.4521,"EPHEMERIS_TYPE":0,"CLASSIFICATION_TYPE":"U","NORAD_CAT_ID":67788,"ELEMENT_SET_NO":999,"REV_AT_EPOCH":403,"BSTAR":0.00078526,"MEAN_MOTION_DOT":0.00028055,"MEAN_MOTION_DDOT":0},{"OBJECT_NAME":"KUIPER-00266","OBJECT_ID":"2026-030AB","EPOCH":"2026-03-02T18:38:32.590176","MEAN_MOTION":15.30987399,"ECCENTRICITY":0.0022661,"INCLINATION":51.8812,"RA_OF_ASC_NODE":252.9693,"ARG_OF_PERICENTER":52.2864,"MEAN_ANOMALY":308.017,"EPHEMERIS_TYPE":0,"CLASSIFICATION_TYPE":"U","NORAD_CAT_ID":67789,"ELEMENT_SET_NO":999,"REV_AT_EPOCH":402,"BSTAR":0.00069564,"MEAN_MOTION_DOT":0.00020981,"MEAN_MOTION_DDOT":0},{"OBJECT_NAME":"KUIPER-00268","OBJECT_ID":"2026-030AC","EPOCH":"2026-03-02T19:03:58.999104","MEAN_MOTION":15.35667063,"ECCENTRICITY":0.0002173,"INCLINATION":51.8837,"RA_OF_ASC_NODE":252.361,"ARG_OF_PERICENTER":31.4192,"MEAN_ANOMALY":328.6924,"EPHEMERIS_TYPE":0,"CLASSIFICATION_TYPE":"U","NORAD_CAT_ID":67790,"ELEMENT_SET_NO":999,"REV_AT_EPOCH":403,"BSTAR":0.00091692,"MEAN_MOTION_DOT":0.00032044,"MEAN_MOTION_DDOT":0},{"OBJECT_NAME":"KUIPER-00270","OBJECT_ID":"2026-030AD","EPOCH":"2026-03-02T17:54:07.709184","MEAN_MOTION":15.34314518,"ECCENTRICITY":0.0009948,"INCLINATION":51.8794,"RA_OF_ASC_NODE":252.7739,"ARG_OF_PERICENTER":37.1014,"MEAN_ANOMALY":323.0657,"EPHEMERIS_TYPE":0,"CLASSIFICATION_TYPE":"U","NORAD_CAT_ID":67791,"ELEMENT_SET_NO":999,"REV_AT_EPOCH":402,"BSTAR":0.00068666,"MEAN_MOTION_DOT":0.00022882,"MEAN_MOTION_DDOT":0},{"OBJECT_NAME":"KUIPER-00274","OBJECT_ID":"2026-030AE","EPOCH":"2026-03-02T18:24:28.119168","MEAN_MOTION":15.31676115,"ECCENTRICITY":0.0017229,"INCLINATION":51.8822,"RA_OF_ASC_NODE":252.9141,"ARG_OF_PERICENTER":49.3654,"MEAN_ANOMALY":310.8826,"EPHEMERIS_TYPE":0,"CLASSIFICATION_TYPE":"U","NORAD_CAT_ID":67792,"ELEMENT_SET_NO":999,"REV_AT_EPOCH":402,"BSTAR":0.00017214,"MEAN_MOTION_DOT":4.993e-5,"MEAN_MOTION_DDOT":0},{"OBJECT_NAME":"KUIPER-00275","OBJECT_ID":"2026-030AF","EPOCH":"2026-03-02T17:50:32.859168","MEAN_MOTION":15.34388755,"ECCENTRICITY":0.0008706,"INCLINATION":51.8827,"RA_OF_ASC_NODE":252.766,"ARG_OF_PERICENTER":34.4058,"MEAN_ANOMALY":325.749,"EPHEMERIS_TYPE":0,"CLASSIFICATION_TYPE":"U","NORAD_CAT_ID":67793,"ELEMENT_SET_NO":999,"REV_AT_EPOCH":402,"BSTAR":0.00069365,"MEAN_MOTION_DOT":0.00023167,"MEAN_MOTION_DDOT":0}]
